{"type": "FeatureCollection", "features": [ {"type": "Feature", "properties": {"norad_id": 67016, "name": "STARLINK-36120", "group": "last-30-days", "lat": -12.480275132104108, "lon": -61.08161370837149, "alt_km": 295.0113803335471, "timestamp": "2025-12-19T16:54:42.970600+00:00", "meta": {"OBJECT_NAME": "STARLINK-36120", "OBJECT_ID": "2025-293P", "EPOCH": "2025-12-19T06:00:02.000160", "MEAN_MOTION": 15.94813825, "ECCENTRICITY": 0.00039133, "INCLINATION": 69.9948, "RA_OF_ASC_NODE": 304.8684, "ARG_OF_PERICENTER": 269.6957, "MEAN_ANOMALY": 348.4719, "EPHEMERIS_TYPE": 0, "CLASSIFICATION_TYPE": "U", "NORAD_CAT_ID": 67016, "ELEMENT_SET_NO": 999, "REV_AT_EPOCH": 130, "BSTAR": -0.0029173849, "MEAN_MOTION_DOT": -0.01121356, "MEAN_MOTION_DDOT": 0.00038425356}, "tle": {"line1": "1 67016U 25293P   25353.25002315 -.01121356  38425-3 -29174-2 0  9998", "line2": "2 67016  69.9948 304.8684 0003913 269.6957 348.4719 15.94813825  1306"}}, "geometry": {"type": "Point", "coordinates": [-61.08161370837149, -12.480275132104108]}}, {"type": "Feature", "properties": {"norad_id": 67017, "name": "STARLINK-35498", "group": "last-30-days", "lat": -8.1325904484787, "lon": -59.44640253681407, "alt_km": 294.3437989477725, "timestamp": "2025-12-19T16:54:42.970610+00:00", "meta": {"OBJECT_NAME": "STARLINK-35498", "OBJECT_ID": "2025-293Q", "EPOCH": "2025-12-19T06:00:02.000160", "MEAN_MOTION": 15.94949617, "ECCENTRICITY": 0.00039444, "INCLINATION": 69.9943, "RA_OF_ASC_NODE": 304.863, "ARG_OF_PERICENTER": 271.0559, "MEAN_ANOMALY": 351.5421, "EPHEMERIS_TYPE": 0, "CLASSIFICATION_TYPE": "U", "NORAD_CAT_ID": 67017, "ELEMENT_SET_NO": 999, "REV_AT_EPOCH": 130, "BSTAR": -0.0029493915, "MEAN_MOTION_DOT": -0.01141727, "MEAN_MOTION_DDOT": 0.00039779052}, "tle": {"line1": "1 67017U 25293Q   25353.25002315 -.01141727  39779-3 -29494-2 0  9991", "line2": "2 67017  69.9943 304.8630 0003944 271.0559 351.5421 15.94949617  1306"}}, "geometry": {"type": "Point", "coordinates": [-59.44640253681407, -8.1325904484787]}}, {"type": "Feature", "properties": {"norad_id": 67018, "name": "STARLINK-36106", "group": "last-30-days", "lat": -6.016315038787183, "lon": -58.6655487603237, "alt_km": 293.95458050054094, "timestamp": "2025-12-19T16:54:42.970620+00:00", "meta": {"OBJECT_NAME": "STARLINK-36106", "OBJECT_ID": "2025-293R", "EPOCH": "2025-12-19T06:00:02.000160", "MEAN_MOTION": 15.95006167, "ECCENTRICITY": 0.00040092, "INCLINATION": 69.9944, "RA_OF_ASC_NODE": 304.8601, "ARG_OF_PERICENTER": 272.4859, "MEAN_ANOMALY": 352.27, "EPHEMERIS_TYPE": 0, "CLASSIFICATION_TYPE": "U", "NORAD_CAT_ID": 67018, "ELEMENT_SET_NO": 999, "REV_AT_EPOCH": 130, "BSTAR": -0.0029274604, "MEAN_MOTION_DOT": -0.0113674, "MEAN_MOTION_DDOT": 0.00039482144}, "tle": {"line1": "1 67018U 25293R   25353.25002315 -.01136740  39482-3 -29275-2 0  9999", "line2": "2 67018  69.9944 304.8601 0004009 272.4859 352.2700 15.95006167  1300"}}, "geometry": {"type": "Point", "coordinates": [-58.6655487603237, -6.016315038787183]}}, {"type": "Feature", "properties": {"norad_id": 67019, "name": "STARLINK-35688", "group": "last-30-days", "lat": -4.047521065533228, "lon": -57.94475544881396, "alt_km": 293.7388683791496, "timestamp": "2025-12-19T16:54:42.970630+00:00", "meta": {"OBJECT_NAME": "STARLINK-35688", "OBJECT_ID": "2025-293S", "EPOCH": "2025-12-19T06:00:02.000160", "MEAN_MOTION": 15.95063458, "ECCENTRICITY": 0.00039425, "INCLINATION": 69.9941, "RA_OF_ASC_NODE": 304.8577, "ARG_OF_PERICENTER": 270.9169, "MEAN_ANOMALY": 355.8447, "EPHEMERIS_TYPE": 0, "CLASSIFICATION_TYPE": "U", "NORAD_CAT_ID": 67019, "ELEMENT_SET_NO": 999, "REV_AT_EPOCH": 135, "BSTAR": -0.0029275651, "MEAN_MOTION_DOT": -0.01140203, "MEAN_MOTION_DDOT": 0.00039727972}, "tle": {"line1": "1 67019U 25293S   25353.25002315 -.01140203  39728-3 -29276-2 0  9993", "line2": "2 67019  69.9941 304.8577 0003942 270.9169 355.8447 15.95063458  1350"}}, "geometry": {"type": "Point", "coordinates": [-57.94475544881396, -4.047521065533228]}}, {"type": "Feature", "properties": {"norad_id": 67020, "name": "STARLINK-36172", "group": "last-30-days", "lat": -1.5279320667513072, "lon": -57.027198234909555, "alt_km": 293.2642300923526, "timestamp": "2025-12-19T16:54:42.970642+00:00", "meta": {"OBJECT_NAME": "STARLINK-36172", "OBJECT_ID": "2025-293T", "EPOCH": "2025-12-19T06:00:02.000160", "MEAN_MOTION": 15.95145541, "ECCENTRICITY": 0.00039265, "INCLINATION": 69.994, "RA_OF_ASC_NODE": 304.8549, "ARG_OF_PERICENTER": 272.7389, "MEAN_ANOMALY": 356.5816, "EPHEMERIS_TYPE": 0, "CLASSIFICATION_TYPE": "U", "NORAD_CAT_ID": 67020, "ELEMENT_SET_NO": 999, "REV_AT_EPOCH": 130, "BSTAR": -0.0029545692, "MEAN_MOTION_DOT": -0.01155632, "MEAN_MOTION_DDOT": 0.00040760036}, "tle": {"line1": "1 67020U 25293T   25353.25002315 -.01155632  40760-3 -29546-2 0  9995", "line2": "2 67020  69.9940 304.8549 0003926 272.7389 356.5816 15.95145541  1303"}}, "geometry": {"type": "Point", "coordinates": [-57.027198234909555, -1.5279320667513072]}}, {"type": "Feature", "properties": {"norad_id": 67021, "name": "STARLINK-36184", "group": "last-30-days", "lat": 0.7642149261868288, "lon": -56.195184389570336, "alt_km": 292.98384253686163, "timestamp": "2025-12-19T16:54:42.970652+00:00", "meta": {"OBJECT_NAME": "STARLINK-36184", "OBJECT_ID": "2025-293U", "EPOCH": "2025-12-19T06:00:02.000160", "MEAN_MOTION": 15.95203231, "ECCENTRICITY": 0.00039889, "INCLINATION": 69.9942, "RA_OF_ASC_NODE": 304.8517, "ARG_OF_PERICENTER": 270.8146, "MEAN_ANOMALY": 0.8436, "EPHEMERIS_TYPE": 0, "CLASSIFICATION_TYPE": "U", "NORAD_CAT_ID": 67021, "ELEMENT_SET_NO": 999, "REV_AT_EPOCH": 130, "BSTAR": -0.0029233689, "MEAN_MOTION_DOT": -0.01147072, "MEAN_MOTION_DDOT": 0.00040228885}, "tle": {"line1": "1 67021U 25293U   25353.25002315 -.01147072  40229-3 -29234-2 0  9999", "line2": "2 67021  69.9942 304.8517 0003988 270.8146   0.8436 15.95203231  1307"}}, "geometry": {"type": "Point", "coordinates": [-56.195184389570336, 0.7642149261868288]}}, {"type": "Feature", "properties": {"norad_id": 67022, "name": "STARLINK-36209", "group": "last-30-days", "lat": 3.4585329971516163, "lon": -55.2149331160357, "alt_km": 292.58842242468563, "timestamp": "2025-12-19T16:54:42.970665+00:00", "meta": {"OBJECT_NAME": "STARLINK-36209", "OBJECT_ID": "2025-293V", "EPOCH": "2025-12-19T06:00:02.000160", "MEAN_MOTION": 15.95292272, "ECCENTRICITY": 0.00038959, "INCLINATION": 69.9939, "RA_OF_ASC_NODE": 304.8488, "ARG_OF_PERICENTER": 269.7296, "MEAN_ANOMALY": 4.664, "EPHEMERIS_TYPE": 0, "CLASSIFICATION_TYPE": "U", "NORAD_CAT_ID": 67022, "ELEMENT_SET_NO": 999, "REV_AT_EPOCH": 130, "BSTAR": -0.0029546482, "MEAN_MOTION_DOT": -0.01164679, "MEAN_MOTION_DDOT": 0.00041413678}, "tle": {"line1": "1 67022U 25293V   25353.25002315 -.01164679  41414-3 -29546-2 0  9995", "line2": "2 67022  69.9939 304.8488 0003895 269.7296   4.6640 15.95292272  1303"}}, "geometry": {"type": "Point", "coordinates": [-55.2149331160357, 3.4585329971516163]}}, {"type": "Feature", "properties": {"norad_id": 67023, "name": "STARLINK-36191", "group": "last-30-days", "lat": 5.656042615980268, "lon": -54.41213086504992, "alt_km": 292.05820547944495, "timestamp": "2025-12-19T16:54:42.970677+00:00", "meta": {"OBJECT_NAME": "STARLINK-36191", "OBJECT_ID": "2025-293W", "EPOCH": "2025-12-19T06:00:02.000160", "MEAN_MOTION": 15.95351955, "ECCENTRICITY": 0.00039458, "INCLINATION": 69.9939, "RA_OF_ASC_NODE": 304.8455, "ARG_OF_PERICENTER": 272.9258, "MEAN_ANOMALY": 3.7048, "EPHEMERIS_TYPE": 0, "CLASSIFICATION_TYPE": "U", "NORAD_CAT_ID": 67023, "ELEMENT_SET_NO": 999, "REV_AT_EPOCH": 130, "BSTAR": -0.0029322859, "MEAN_MOTION_DOT": -0.01159639, "MEAN_MOTION_DDOT": 0.00041109158}, "tle": {"line1": "1 67023U 25293W   25353.25002315 -.01159639  41109-3 -29323-2 0  9990", "line2": "2 67023  69.9939 304.8455 0003945 272.9258   3.7048 15.95351955  1304"}}, "geometry": {"type": "Point", "coordinates": [-54.41213086504992, 5.656042615980268]}}, {"type": "Feature", "properties": {"norad_id": 67024, "name": "STARLINK-36192", "group": "last-30-days", "lat": 8.15479132945357, "lon": -53.49010989452222, "alt_km": 291.73502780750005, "timestamp": "2025-12-19T16:54:42.970687+00:00", "meta": {"OBJECT_NAME": "STARLINK-36192", "OBJECT_ID": "2025-293X", "EPOCH": "2025-12-19T06:00:02.000160", "MEAN_MOTION": 15.95434082, "ECCENTRICITY": 0.00039166, "INCLINATION": 69.9939, "RA_OF_ASC_NODE": 304.8428, "ARG_OF_PERICENTER": 270.4958, "MEAN_ANOMALY": 8.6732, "EPHEMERIS_TYPE": 0, "CLASSIFICATION_TYPE": "U", "NORAD_CAT_ID": 67024, "ELEMENT_SET_NO": 999, "REV_AT_EPOCH": 130, "BSTAR": -0.0029584129, "MEAN_MOTION_DOT": -0.01174979, "MEAN_MOTION_DDOT": 0.00042153837}, "tle": {"line1": "1 67024U 25293X   25353.25002315 -.01174979  42154-3 -29584-2 0  9995", "line2": "2 67024  69.9939 304.8428 0003916 270.4958   8.6732 15.95434082  1300"}}, "geometry": {"type": "Point", "coordinates": [-53.49010989452222, 8.15479132945357]}}, {"type": "Feature", "properties": {"norad_id": 67025, "name": "STARLINK-36178", "group": "last-30-days", "lat": 10.16611493330416, "lon": -52.7396158499161, "alt_km": 291.38478734669025, "timestamp": "2025-12-19T16:54:42.970698+00:00", "meta": {"OBJECT_NAME": "STARLINK-36178", "OBJECT_ID": "2025-293Y", "EPOCH": "2025-12-19T06:00:02.000160", "MEAN_MOTION": 15.95495647, "ECCENTRICITY": 0.00039375, "INCLINATION": 69.9938, "RA_OF_ASC_NODE": 304.8401, "ARG_OF_PERICENTER": 270.1797, "MEAN_ANOMALY": 11.0342, "EPHEMERIS_TYPE": 0, "CLASSIFICATION_TYPE": "U", "NORAD_CAT_ID": 67025, "ELEMENT_SET_NO": 999, "REV_AT_EPOCH": 130, "BSTAR": -0.0029566706, "MEAN_MOTION_DOT": -0.01178155, "MEAN_MOTION_DDOT": 0.00042391435}, "tle": {"line1": "1 67025U 25293Y   25353.25002315 -.01178155  42391-3 -29567-2 0  9990", "line2": "2 67025  69.9938 304.8401 0003937 270.1797  11.0342 15.95495647  1301"}}, "geometry": {"type": "Point", "coordinates": [-52.7396158499161, 10.16611493330416]}}]}